LUDI TANCE-4 01A        
1 57624U 23120A   26196.74041108 -.00000187  00000+0  00000+0 0  9996
2 57624  15.0861 193.2601 0001570  15.2314  81.1515  1.00275631 10836
TJS-10                  
1 58204U 23169A   26196.78922244 -.00000261  00000+0  00000+0 0  9990
2 58204   2.6161  80.1472 0004080 115.1904 114.7974  1.00273627  9822
ZHONGXING-6E            
1 58253U 23172A   26195.70499280 -.00000370  00000+0  00000+0 0  9999
2 58253   0.0192  86.2131 0002698  23.7417 191.9164  1.00272476  9938
YAOGAN-41               
1 58582U 23197A   26196.86654806 -.00000370  00000+0  00000+0 0  9996
2 58582   3.0774 313.5981 0014283 198.5064 216.6491  1.00265332  9619
OVZON-3                 
1 58698U 24003A   26195.87143991  .00000043  00000+0  00000+0 0  9995
2 58698   0.0136 108.2863 0000368 217.1758 340.6622  1.00270475  7729
INSAT-3DS               
1 58990U 24033A   26196.78718765 -.00000166  00000+0  00000+0 0  9998
2 58990   0.0895 264.6080 0001084 224.4752 170.0000  1.00270864 47355
MERAH PUTIH 2           
1 58995U 24035A   26195.34489189 -.00000365  00000+0  00000+0 0  9992
2 58995   0.0215  82.0854 0001062  34.4456  52.7926  1.00270544  8864
TJS-11                  
1 59020U 24037A   26196.86446804 -.00000370  00000+0  00000+0 0  9995
2 59020   4.1622 327.4419 0001839 150.1534 239.8832  1.00273387  8872
HULIANWAN GAOGUI-01 (H*)
1 59069U 24040A   26196.56370677  .00000146  00000+0  00000+0 0  9993
2 59069   0.0734 333.3745 0001725  62.7563 133.8265  1.00274292  7616
EUTELSAT 36D            
1 59346U 24059A   26196.49289185  .00000146  00000+0  00000+0 0  9996
2 59346   0.0176  47.0031 0000200 205.4788 254.1647  1.00270745  8434
PAKSAT-MM1              
1 59915U 24104A   26194.56857404  .00000150  00000+0  00000+0 0  9995
2 59915   0.0311 143.3666 0001963 313.2921  77.6097  1.00269751  7795
ASTRA 1P (SES-24)       
1 60086U 24115A   26194.35091053  .00000118  00000+0  00000+0 0  9999
2 60086   0.0666 329.5187 0001497 236.9138 230.3347  1.00281209  7460
GOES 19                 
1 60133U 24119A   26196.75591433 -.00000259  00000+0  00000+0 0  9996
2 60133   0.0117  90.7045 0000414 119.9215 279.9033  1.00271327  7256
ZHONGXING-3A            
1 60179U 24122A   26196.79104245 -.00000324  00000+0  00000+0 0  9998
2 60179   0.0284 118.0048 0001717  49.1090 152.8803  1.00270068  7592
TURKSAT 6A              
1 60233U 24127A   26196.85048913  .00000000  00000+0  00000+0 0  9990
2 60233   0.0179 201.2812 0002956 327.3566 113.2051  1.00269920  7305
HULIANWAN GAOGUI-02 (H*)
1 60327U 24135A   26196.80126918 -.00000184  00000+0  00000+0 0  9994
2 60327   0.0469 357.6076 0006173  11.4145   6.1019  1.00271975  7787
ZHONGXING-4A            
1 60606U 24151A   26196.52995333 -.00000372  00000+0  00000+0 0  9995
2 60606   1.2426 270.4906 0000406 296.2264  35.6107  1.00267142  7039
HULIANWAN GAOGUI-03 (H*)
1 61503U 24181A   26196.82692263 -.00000251  00000+0  00000+0 0  9990
2 61503   0.0510 359.2926 0001047  93.7712  61.1711  1.00270412  7113
DSN-3 (KIRAMEKI-3)      
1 61733U 24198A   26196.79944917 -.00000260  00000+0  00000+0 0  9995
2 61733   0.0176  50.5945 0000849  88.8518 226.0587  1.00271643  6205
KOREASAT 6A             
1 61910U 24206A   26196.79390247 -.00000372  00000+0  00000+0 0  9997
2 61910   0.0149  99.9437 0000739 354.1756 241.3241  1.00269813  6120
OPTUS-X (ADS-01)        
1 62006U 24212A   26196.20183799 -.00000153  00000+0  00000+0 0  9996
2 62006   0.0135  63.8448 0002386  90.1044   8.1442  1.00270006  6040
GSAT-N2 (GSAT-20)       
1 62028U 24214A   26196.78441432 -.00000029  00000+0  00000+0 0  9998
2 62028   0.0727 262.0809 0002640 144.2898 237.5713  1.00271191  6186
SXM-9                   
1 62259U 24234A   26196.61152072 -.00000215  00000+0  00000+0 0  9994
2 62259   0.0167 340.8489 0004930 336.9476 110.6319  1.00269420  5853
TJS-12                  
1 62374U 24246A   26196.72861419 -.00000241  00000+0  00000+0 0  9998
2 62374   0.6104 302.1742 0001798  97.4123 302.8032  1.00268848  5858
NUVIEW ALPHA            
1 62455U 24252B   26196.25545237 -.00000225  00000+0  00000+0 0  9992
2 62455   0.0436  27.4031 0000983  54.2618 220.2947  1.00270943  4107
AGILA                   
1 62456U 24252C   26196.60739123 -.00000192  00000+0  00000+0 0  9994
2 62456   0.0493 128.1618 0001181 351.5480 184.5583  1.00270462  5444
NUVIEW BRAVO            
1 62457U 24252D   26196.25545237 -.00000224  00000+0  00000+0 0  9993
2 62457   0.0698 162.7343 0001502 343.8112 155.4099  1.00270612  4078
THURAYA-4               
1 62483U 25001A   26196.85100913  .00000129  00000+0  00000+0 0  9992
2 62483   0.0216  73.0206 0000165 217.5846 353.7551  1.00272765  4460
SHIJIAN-25 (SJ-25)      
1 62485U 25002A   26196.79329299 -.00000364  00000+0  00000+0 0  9990
2 62485   5.1794  60.9819 0052117 175.4963 109.8555  1.00263213  5643
TJS-14                  
1 62804U 25017A   26196.86850241  .00000105  00000+0  00000+0 0  9997
2 62804   0.7195 297.7790 0002052 308.9614  18.0438  1.00267314  5558
SPAINSAT NG I           
1 62852U 25021A   26196.77664953  .00000141  00000+0  00000+0 0  9998
2 62852   0.0199  29.4483 0000113 249.8328 322.9069  1.00270277  4275
QZS-6 (MICHIBIKI-6)     
1 62876U 25023A   26196.78887578 -.00000242  00000+0  00000+0 0  9990
2 62876   0.0103  12.6020 0001840 119.3403 176.0977  1.00266863  5239
